NORAD_CAT_ID,OBJECT_NAME,OBJECT_TYPE,EPOCH,MEAN_MOTION,ECCENTRICITY,INCLINATION,RA_OF_ASC_NODE,ARG_OF_PERICENTER,MEAN_ANOMALY,BSTAR,MEAN_MOTION_DOT,MEAN_MOTION_DDOT,TLE_LINE0,TLE_LINE1,TLE_LINE2,SEMIMAJOR_AXIS,PERIOD,APOGEE,PERIGEE,DECAYED
51750.0,STARLINK-3505,PAYLOAD,2024-05-07 21:19:38,15.08832493,0.0001378,53.2164,80.4638,106.119,253.9954,-5.8905e-05,-1.225e-05,0.0,0 STARLINK-3505,1 51750U 22016AN  24128.88863926 -.00001225  00000-0 -58905-4 0  9999,2 51750  53.2164  80.4638 0001378 106.1190 253.9954 15.08832493123553,6917.903,95.438,540.722,538.815,0.0
51750.0,STARLINK-3505,PAYLOAD,2024-05-08 13:13:30,15.08835831,0.0001379,53.2163,77.4972,91.1946,268.9204,4.64e-05,4.51e-06,0.0,0 STARLINK-3505,1 51750U 22016AN  24129.55104271  .00000451  00000-0  46400-4 0  9990,2 51750  53.2163  77.4972 0001379  91.1946 268.9204 15.08835831122532,6917.893,95.438,540.712,538.804,0.0
51750.0,STARLINK-3505,PAYLOAD,2024-05-09 03:31:57,15.088546,0.0001208,53.2166,74.8208,92.9029,267.2101,0.00045549,6.972e-05,0.0,0 STARLINK-3505,1 51750U 22016AN  24130.14719610  .00006972  00000-0  45549-3 0  9992,2 51750  53.2166  74.8208 0001208  92.9029 267.2101 15.08854600123747,6917.836,95.437,540.536,538.865,0.0
51750.0,STARLINK-3505,PAYLOAD,2024-05-09 13:04:16,15.08855679,0.0001016,53.2154,73.0361,82.653,277.4577,0.00063399,9.821e-05,0.0,0 STARLINK-3505,1 51750U 22016AN  24130.54463513  .00009821  00000-0  63399-3 0  9993,2 51750  53.2154  73.0361 0001016  82.6530 277.4577 15.08855679122684,6917.832,95.437,540.4,538.995,0.0
51750.0,STARLINK-3505,PAYLOAD,2024-05-10 04:58:08,15.08858251,0.0001318,53.2173,70.064,83.0909,277.0233,0.00096849,0.00015167,0.0,0 STARLINK-3505,1 51750U 22016AN  24131.20703708  .00015167  00000-0  96849-3 0  9996,2 51750  53.2173  70.0640 0001318  83.0909 277.0233 15.08858251123902,6917.825,95.436,540.601,538.778,0.0
51750.0,STARLINK-3505,PAYLOAD,2024-05-11 03:13:31,15.0889405,0.0001457,53.2173,65.9022,89.036,271.0799,0.0028271,0.0004506,0.0,0 STARLINK-3505,1 51750U 22016AN  24132.13439228  .00045060  00000-0  28271-2 0  9990,2 51750  53.2173  65.9022 0001457  89.0360 271.0799 15.08894050124044,6917.715,95.434,540.588,538.572,0.0
51750.0,STARLINK-3505,PAYLOAD,2024-05-11 12:45:48,15.08971103,0.0001687,53.2176,64.1183,79.3193,280.7989,0.0048772,0.0007848,0.0,0 STARLINK-3505,1 51750U 22016AN  24132.53180743  .00078480  00000-0  48772-2 0  9999,2 51750  53.2176  64.1183 0001687  79.3193 280.7989 15.08971103124107,6917.48,95.429,540.512,538.178,0.0
51750.0,STARLINK-3505,PAYLOAD,2024-05-11 19:07:19,15.08956393,0.0001645,53.2179,62.9298,95.7186,264.3994,0.0029346,0.00046877,0.0,0 STARLINK-3505,1 51750U 22016AN  24132.79674849  .00046877  00000-0  29346-2 0  9993,2 51750  53.2179  62.9298 0001645  95.7186 264.3994 15.08956393124143,6917.525,95.43,540.528,538.252,0.0
51750.0,STARLINK-3505,PAYLOAD,2024-05-12 04:39:37,15.08880546,9.76e-05,53.2176,61.1423,66.8601,293.2494,-0.00083452,-0.00013559,0.0,0 STARLINK-3505,1 51750U 22016AN  24133.19418670 -.00013559  00000-0 -83452-3 0  9998,2 51750  53.2176  61.1423 0000976  66.8601 293.2494 15.08880546124207,6917.756,95.435,540.297,538.946,0.0
51750.0,STARLINK-3505,PAYLOAD,2024-05-12 12:36:34,15.08809342,9.61e-05,53.2183,59.6561,84.9575,275.1526,-0.0023799,-0.00037932,0.0,0 STARLINK-3505,1 51750U 22016AN  24133.52540112 -.00037932  00000-0 -23799-2 0  9990,2 51750  53.2183  59.6561 0000961  84.9575 275.1526 15.08809342124250,6917.974,95.439,540.504,539.174,0.0
51750.0,STARLINK-3505,PAYLOAD,2024-05-13 04:30:29,15.08776857,0.0001133,53.2185,56.6818,118.1347,241.976,0.00080451,0.00012517,0.0,0 STARLINK-3505,1 51750U 22016AN  24134.18784614  .00012517  00000-0  80451-3 0  9999,2 51750  53.2185  56.6818 0001133 118.1347 241.9760 15.08776857124359,6918.073,95.442,540.722,539.155,0.0
51750.0,STARLINK-3505,PAYLOAD,2024-05-13 12:27:26,15.08799423,9e-05,53.2182,55.1975,125.9259,234.1817,0.0012936,0.00020337,0.0,0 STARLINK-3505,1 51750U 22016AN  24134.51905888  .00020337  00000-0  12936-2 0  9995,2 51750  53.2182  55.1975 0000900 125.9259 234.1817 15.08799423123285,6918.004,95.44,540.492,539.247,0.0
51750.0,STARLINK-3505,PAYLOAD,2024-05-14 01:10:32,15.0883501,6.96e-05,53.2174,52.8181,125.6986,234.4071,0.0015576,0.00024585,0.0,0 STARLINK-3505,1 51750U 22016AN  24135.04898339  .00024585  00000-0  15576-2 0  9998,2 51750  53.2174  52.8181 0000696 125.6986 234.4071 15.08835010124486,6917.896,95.438,540.242,539.279,0.0
51750.0,STARLINK-3505,PAYLOAD,2024-05-14 21:50:31,15.08881528,8.69e-05,53.2181,48.9522,134.7976,225.3087,0.0017366,0.0002749,0.0,0 STARLINK-3505,1 51750U 22016AN  24135.91009186  .00027490  00000-0  17366-2 0  9995,2 51750  53.2181  48.9522 0000869 134.7976 225.3087 15.08881528123492,6917.753,95.435,540.22,539.017,0.0
51750.0,STARLINK-3505,PAYLOAD,2024-05-15 04:12:03,15.0890383,6.32e-05,53.217,47.7632,130.2906,229.8142,0.0019809,0.00031434,0.0,0 STARLINK-3505,1 51750U 22016AN  24136.17504124  .00031434  00000-0  19809-2 0  9993,2 51750  53.2170  47.7632 0000632 130.2906 229.8142 15.08903830124652,6917.685,95.434,539.987,539.113,0.0
51750.0,STARLINK-3505,PAYLOAD,2024-05-15 10:33:36,15.0887534,0.0001763,53.2182,46.5724,92.7315,267.3879,0.0014737,0.00023267,0.0,0 STARLINK-3505,1 51750U 22016AN  24136.44000615  .00023267  00000-0  14737-2 0  9999,2 51750  53.2182  46.5724 0001763  92.7315 267.3879 15.08875340124698,6917.772,95.435,540.857,538.418,0.0
51750.0,STARLINK-3505,PAYLOAD,2024-05-15 21:41:18,15.08841661,5.19e-05,53.2182,44.4922,62.0985,298.0059,0.00099082,0.00015517,0.0,0 STARLINK-3505,1 51750U 22016AN  24136.90368629  .00015517  00000-0  99082-3 0  9998,2 51750  53.2182  44.4922 0000519  62.0985 298.0059 15.08841661124764,6917.875,95.437,540.099,539.381,0.0
51750.0,STARLINK-3505,PAYLOAD,2024-05-16 10:24:23,15.08852492,6.04e-05,53.2169,42.1112,20.4396,339.662,0.0011041,0.00017333,0.0,0 STARLINK-3505,1 51750U 22016AN  24137.43360473  .00017333  00000-0  11041-2 0  9992,2 51750  53.2169  42.1112 0000604  20.4396 339.6620 15.08852492123729,6917.842,95.437,540.125,539.289,0.0
51750.0,STARLINK-3505,PAYLOAD,2024-05-16 16:45:56,15.08853024,0.0001244,53.218,40.9218,72.086,288.0268,0.0010196,0.00015982,0.0,0 STARLINK-3505,1 51750U 22016AN  24137.69856658  .00015982  00000-0  10196-2 0  9993,2 51750  53.2180  40.9218 0001244  72.0860 288.0268 15.08853024124880,6917.841,95.437,540.566,538.845,0.0
51750.0,STARLINK-3505,PAYLOAD,2024-05-17 10:15:10,15.08836989,7.59e-05,53.2171,37.6515,42.264,317.841,-3.9007e-05,-9.08e-06,0.0,0 STARLINK-3505,1 51750U 22016AN  24138.42720626 -.00000908  00000-0 -39007-4 0  9998,2 51750  53.2171  37.6515 0000759  42.2640 317.8410 15.08836989124991,6917.89,95.438,540.28,539.23,0.0
51750.0,STARLINK-3505,PAYLOAD,2024-05-17 21:22:53,15.0881178,9.13e-05,53.217,35.5714,60.4744,299.634,-0.00042298,-7.008e-05,0.0,0 STARLINK-3505,1 51750U 22016AN  24138.89089949 -.00007008  00000-0 -42298-3 0  9998,2 51750  53.2170  35.5714 0000913  60.4744 299.6340 15.08811780125067,6917.967,95.439,540.463,539.2,0.0
51750.0,STARLINK-3505,PAYLOAD,2024-05-18 02:09:03,15.08829512,9.12e-05,53.218,34.6807,100.2256,259.8839,0.00063203,9.782e-05,0.0,0 STARLINK-3505,1 51750U 22016AN  24139.08961976  .00009782  00000-0  63203-3 0  9997,2 51750  53.2180  34.6807 0000912 100.2256 259.8839 15.08829512125097,6917.912,95.438,540.408,539.147,0.0
51750.0,STARLINK-3505,PAYLOAD,2024-05-18 10:05:58,15.08845591,6.54e-05,53.2165,33.1897,92.9744,267.1323,0.0014253,0.00022472,0.0,0 STARLINK-3505,1 51750U 22016AN  24139.42081880  .00022472  00000-0  14253-2 0  9993,2 51750  53.2165  33.1897 0000654  92.9744 267.1323 15.08845591124022,6917.863,95.437,540.181,539.276,0.0
51750.0,STARLINK-3505,PAYLOAD,2024-05-18 21:13:40,15.08862525,0.0001178,53.2182,31.1084,86.1368,273.9759,0.0010504,0.00016479,0.0,0 STARLINK-3505,1 51750U 22016AN  24139.88449588  .00016479  00000-0  10504-2 0  9991,2 51750  53.2182  31.1084 0001178  86.1368 273.9759 15.08862525125212,6917.812,95.436,540.491,538.862,0.0
51750.0,STARLINK-3505,PAYLOAD,2024-05-18 22:49:03,15.08870312,0.0002079,53.2184,30.8115,84.4934,275.6295,0.0010122,0.00015871,0.0,0 STARLINK-3505,1 51750U 22016AN  24139.95073585  .00015871  00000-0  10122-2 0  9990,2 51750  53.2184  30.8115 0002079  84.4934 275.6295 15.08870312124100,6917.788,95.436,541.091,538.215,0.0
51750.0,STARLINK-3505,PAYLOAD,2024-05-19 01:59:50,15.08835515,9.86e-05,53.2173,30.2179,88.0766,272.0339,-0.0001589,-2.815e-05,0.0,0 STARLINK-3505,1 51750U 22016AN  24140.08321892 -.00002815  00000-0 -15890-3 0  9997,2 51750  53.2173  30.2179 0000986  88.0766 272.0339 15.08835515125242,6917.894,95.438,540.441,539.077,0.0
51750.0,STARLINK-3505,PAYLOAD,2024-05-19 21:04:28,15.08820794,0.0001317,53.2177,26.648,90.8757,269.2386,0.00027269,4.052e-05,0.0,0 STARLINK-3505,1 51750U 22016AN  24140.87811172  .00004052  00000-0  27269-3 0  9995,2 51750  53.2177  26.6480 0001317  90.8757 269.2386 15.08820794125366,6917.939,95.439,540.715,538.893,0.0
51750.0,STARLINK-3505,PAYLOAD,2024-05-20 20:55:15,15.08864978,0.0001592,53.2178,22.19,95.9187,264.1987,0.0010993,0.00017263,0.0,0 STARLINK-3505,1 51750U 22016AN  24141.87170687  .00017263  00000-0  10993-2 0  9998,2 51750  53.2178  22.1900 0001592  95.9187 264.1987 15.08864978125513,6917.804,95.436,540.77,538.568,0.0
51750.0,STARLINK-3505,PAYLOAD,2024-05-20 22:30:38,15.08869042,0.0001457,53.2171,21.8927,81.3628,278.7529,0.0011854,0.00018643,0.0,0 STARLINK-3505,1 51750U 22016AN  24141.93794604  .00018643  00000-0  11854-2 0  9996,2 51750  53.2171  21.8927 0001457  81.3628 278.7529 15.08869042124407,6917.792,95.436,540.665,538.649,0.0
51750.0,STARLINK-3505,PAYLOAD,2024-05-21 20:46:01,15.08863325,0.0001454,53.2171,17.7295,93.1194,266.9965,0.00066884,0.00010379,0.0,0 STARLINK-3505,1 51750U 22016AN  24142.86529975  .00010379  00000-0  66884-3 0  9998,2 51750  53.2171  17.7295 0001454  93.1194 266.9965 15.08863325125665,6917.809,95.436,540.68,538.668,0.0
